{
"type": "FeatureCollection",
"name": "co_clim_regions_epsg4326",
"crs": { "type": "name", "properties": { "name": "urn:ogc:def:crs:OGC:1.3:CRS84" } },
"features": [
{ "type": "Feature", "properties": { "REGION_LABEL": "Northwest", "REGION_ID": 9 }, "geometry": { "type": "MultiPolygon", "coordinates": [ [ [ [ -107.283202915270707, 41.00289350881355 ], [ -107.375630734442296, 40.833794591458002 ], [ -107.208355057344889, 40.833794591458002 ], [ -107.208355057344889, 40.750686018736516 ], [ -107.291339475279941, 40.750686018736516 ], [ -107.291339475279941, 40.687790863597705 ], [ -107.229917937595744, 40.62632409359297 ], [ -107.19986058936729, 40.625332230021861 ], [ -107.1227569569552, 40.444567837230267 ], [ -107.124063798182547, 40.375908825298573 ], [ -107.223383731459123, 40.376904383646163 ], [ -107.314862617371759, 40.291232609492866 ], [ -107.373997182908127, 40.291357211346075 ], [ -107.376774220516197, 40.165267476025285 ], [ -107.260465351284438, 40.019304926788983 ], [ -107.294443223194861, 39.976256296302871 ], [ -107.252624303920484, 39.918147719690232 ], [ -107.317966365286679, 39.873029481065849 ], [ -107.417286298563255, 39.875035366800269 ], [ -107.617233006343739, 39.669127054810637 ], [ -107.813259190442224, 39.705331140938782 ], [ -108.018433263132025, 39.70633653899651 ], [ -108.274574143687389, 39.830892330748853 ], [ -108.495430311105068, 39.831895896825131 ], [ -108.679694924157658, 39.74754524466104 ], [ -108.975041041532748, 39.705331140938782 ], [ -109.050950453034645, 39.70576533651176 ], [ -109.050615, 39.87497 ], [ -109.050873, 40.058915 ], [ -109.050813, 40.059579 ], [ -109.050935718229994, 40.173054017608003 ], [ -109.050944, 40.180712 ], [ -109.050973, 40.180849 ], [ -109.050968717402, 40.222647002020203 ], [ -109.050946, 40.444368 ], [ -109.050314, 40.495092 ], [ -109.050698, 40.499963 ], [ -109.049955, 40.539901 ], [ -109.050074, 40.540358 ], [ -109.048044, 40.619231 ], [ -109.048249, 40.653601 ], [ -109.048372974241005, 40.662608858969001 ], [ -109.049088, 40.714562 ], [ -109.048455, 40.826081 ], [ -109.050076, 41.000659 ], [ -108.884138, 41.000094 ], [ -108.631108, 41.000156 ], [ -108.526667, 40.999608 ], [ -108.500659, 41.000112 ], [ -108.250649, 41.000114 ], [ -108.181227, 41.000455 ], [ -108.046539, 41.002064 ], [ -107.918421, 41.002036 ], [ -107.625624, 41.002124 ], [ -107.367443, 41.003073 ], [ -107.317793899405004, 41.002967212167498 ], [ -107.302937003075996, 41.0029355564307 ], [ -107.283202915270707, 41.00289350881355 ] ] ] ] } },
{ "type": "Feature", "properties": { "REGION_LABEL": "Mesas & Valleys", "REGION_ID": 8 }, "geometry": { "type": "MultiPolygon", "coordinates": [ [ [ [ -106.959090786544678, 39.678576962770521 ], [ -106.958585027772784, 39.559393403130564 ], [ -106.916766108498408, 39.518576493218895 ], [ -107.025233930366269, 39.416681634796731 ], [ -107.06509258779964, 39.416681634796731 ], [ -107.125207284256518, 39.350521570069525 ], [ -107.124553863642817, 39.143050639230374 ], [ -107.083388364982142, 39.101989902196678 ], [ -107.082734944368497, 39.070037229191357 ], [ -107.250664042079563, 38.96952033967677 ], [ -107.31208557976376, 38.749715080555781 ], [ -107.459758638451291, 38.601269084803484 ], [ -107.457798376610285, 38.360861335378701 ], [ -107.415979457335951, 38.291147037477614 ], [ -107.415979457335951, 38.209044398018428 ], [ -107.461065479678595, 38.209044398018428 ], [ -107.578681190137715, 38.041473434015195 ], [ -107.957665146061501, 37.852883660023984 ], [ -107.956358304834168, 37.780617565126718 ], [ -108.163492639364932, 37.70724685369948 ], [ -108.388269330464595, 37.708797691140042 ], [ -108.488896104968504, 37.791978350408641 ], [ -108.553584745721011, 37.791978350408641 ], [ -108.647023893474625, 37.875065471236859 ], [ -108.675120979862086, 37.875581247868624 ], [ -108.766599865774737, 38.000807869745067 ], [ -109.042816980425371, 37.999773026870677 ], [ -109.041836576110995, 38.153032090353904 ], [ -109.041762, 38.16469 ], [ -109.054648, 38.244921 ], [ -109.060062, 38.275489 ], [ -109.059962, 38.499987 ], [ -109.059962121447995, 38.500028459545 ], [ -109.060253, 38.599328 ], [ -109.059541, 38.719888 ], [ -109.057388, 38.795456 ], [ -109.054189, 38.874984 ], [ -109.053943, 38.904414 ], [ -109.053797, 38.905284 ], [ -109.053233, 38.942467 ], [ -109.053292, 38.942878 ], [ -109.052436, 38.999985 ], [ -109.051582259726999, 39.116505763904399 ], [ -109.051512, 39.126095 ], [ -109.050765, 39.366677 ], [ -109.051363, 39.497674 ], [ -109.051362941958999, 39.497703276010597 ], [ -109.051040251033996, 39.660470649351801 ], [ -109.050950453034645, 39.70576533651176 ], [ -108.975041041532748, 39.705331140938782 ], [ -108.679694924157658, 39.74754524466104 ], [ -108.495430311105068, 39.831895896825131 ], [ -108.274574143687389, 39.830892330748853 ], [ -108.018433263132025, 39.70633653899651 ], [ -107.813259190442224, 39.705331140938782 ], [ -107.617233006343739, 39.669127054810637 ], [ -107.417286298563255, 39.875035366800269 ], [ -107.317966365286679, 39.873029481065849 ], [ -107.25301671595841, 39.917876761909042 ], [ -107.097110197869029, 39.917145414869466 ], [ -107.042222866321438, 39.779188859158609 ], [ -106.959090786544678, 39.678576962770521 ] ] ] ] } },
{ "type": "Feature", "properties": { "REGION_LABEL": "Central Mountains", "REGION_ID": 11 }, "geometry": { "type": "MultiPolygon", "coordinates": [ [ [ [ -105.834492264797944, 39.68315024850277 ], [ -105.873580098787627, 39.519143559109949 ], [ -105.850056956695809, 39.438447704130382 ], [ -106.201597246845807, 39.000058568223899 ], [ -106.250603792870379, 39.00056636917234 ], [ -106.249296951643075, 38.916729912763905 ], [ -106.307451386259004, 38.917238311225454 ], [ -106.373446868238815, 38.858748616789761 ], [ -106.374100288852475, 38.685541043201411 ], [ -106.291769291531111, 38.606949869655196 ], [ -106.291442581224288, 38.500152597901454 ], [ -106.208458163289265, 38.499896911838285 ], [ -106.175787132606175, 38.436330793855156 ], [ -106.207151322061932, 38.374885792968627 ], [ -106.106524547558038, 38.374885792968627 ], [ -106.040529065578227, 38.313388567253384 ], [ -106.041182486191886, 38.208210067372498 ], [ -106.143116101923113, 38.207696628375352 ], [ -106.273146804041787, 38.082309299220121 ], [ -106.380144429528826, 38.082052136753916 ], [ -106.524550385148075, 38.05375874423931 ], [ -106.665035817085325, 38.151966986394811 ], [ -107.045980034850089, 38.249530024760219 ], [ -107.306694859701111, 38.250043168537808 ], [ -107.360928770635027, 38.290057219590111 ], [ -107.415979457335951, 38.290743062335771 ], [ -107.415979457335951, 38.291147037477614 ], [ -107.457798376610285, 38.360861335378701 ], [ -107.459758638451291, 38.601269084803484 ], [ -107.31208557976376, 38.749715080555781 ], [ -107.250664042079563, 38.96952033967677 ], [ -107.082734944368497, 39.070037229191357 ], [ -107.083388364982142, 39.101989902196678 ], [ -107.124553863642817, 39.143050639230374 ], [ -107.125207284256518, 39.350521570069525 ], [ -107.06509258779964, 39.416681634796731 ], [ -107.025233930366269, 39.416681634796731 ], [ -106.916766108498408, 39.518576493218895 ], [ -106.958585027772784, 39.559393403130564 ], [ -106.959090786544678, 39.678576962770521 ], [ -106.957931607159082, 39.677174047836218 ], [ -106.957931607159082, 39.583569873983734 ], [ -106.831821428722378, 39.582562689359918 ], [ -106.664545751624971, 39.623845254667607 ], [ -106.500537177595888, 39.583066283501573 ], [ -106.499230336368583, 39.708347291162013 ], [ -106.431274592547723, 39.707844608614401 ], [ -106.277067327723572, 39.782703918646568 ], [ -106.147690046218571, 39.761610868602077 ], [ -106.040529065578042, 39.780695335210403 ], [ -105.901350474868096, 39.750057173878808 ], [ -105.834492264797944, 39.68315024850277 ] ] ] ] } },
{ "type": "Feature", "properties": { "REGION_LABEL": "Southwest", "REGION_ID": 7 }, "geometry": { "type": "MultiPolygon", "coordinates": [ [ [ [ -106.525237860729845, 38.054239333347233 ], [ -106.664872461931949, 37.826630860498625 ], [ -106.666179303159268, 37.710930039631016 ], [ -106.606064606702404, 37.710930039631016 ], [ -106.49759678483457, 37.607472837008345 ], [ -106.393049486648692, 37.208859295918906 ], [ -106.347310043692374, 37.208338886148155 ], [ -106.240524873295627, 36.994243637809383 ], [ -106.247705, 36.994266 ], [ -106.248675, 36.994288 ], [ -106.293279, 36.99389 ], [ -106.343139, 36.99423 ], [ -106.412053832702, 36.994027785629001 ], [ -106.476275022520994, 36.993839343649398 ], [ -106.500589, 36.993768 ], [ -106.617159, 36.992967 ], [ -106.617125, 36.993004 ], [ -106.628652, 36.993175 ], [ -106.628733, 36.993161 ], [ -106.661344, 36.993243 ], [ -106.675626, 36.993123 ], [ -106.750591, 36.992461 ], [ -106.781877981448005, 36.992451813771602 ], [ -106.869796, 36.992426 ], [ -106.877292, 37.000139 ], [ -106.963597454587998, 37.000117726114503 ], [ -106.985514007228005, 37.000112323788102 ], [ -107.420913, 37.000005 ], [ -107.481736999155004, 37.000004580314297 ], [ -107.712404494354004, 37.000002988708196 ], [ -107.780576407328994, 37.000002518321899 ], [ -108.000623, 37.000001 ], [ -108.047368367462994, 36.999815698645897 ], [ -108.249358, 36.999015 ], [ -108.250635, 36.999561 ], [ -108.288086, 36.999555 ], [ -108.2884, 36.99952 ], [ -108.320464, 36.999499 ], [ -108.320721, 36.99951 ], [ -108.379302869797996, 36.999458857844303 ], [ -108.536412308880998, 36.999321700812096 ], [ -108.619689, 36.999249 ], [ -108.620309, 36.999287 ], [ -108.954404, 36.998906 ], [ -108.958868, 36.998913 ], [ -109.045223, 36.999084 ], [ -109.045166, 37.072742 ], [ -109.045058, 37.074661 ], [ -109.044995, 37.086429 ], [ -109.045189, 37.096271 ], [ -109.045173, 37.109464 ], [ -109.045203, 37.111958 ], [ -109.045156, 37.112064 ], [ -109.045995, 37.177279 ], [ -109.045978, 37.201831 ], [ -109.045487, 37.210844 ], [ -109.045560197361993, 37.239901843323402 ], [ -109.045584, 37.249351 ], [ -109.046039, 37.249993 ], [ -109.045837973618006, 37.359723557672197 ], [ -109.04581, 37.374993 ], [ -109.043461439769004, 37.484820040900303 ], [ -109.043137, 37.499992 ], [ -109.041915, 37.530653 ], [ -109.041865, 37.530726 ], [ -109.041806, 37.604171 ], [ -109.042131, 37.617662 ], [ -109.042089, 37.623795 ], [ -109.042269, 37.666067 ], [ -109.041732, 37.711214 ], [ -109.04176, 37.713182 ], [ -109.041636, 37.74021 ], [ -109.042098, 37.74999 ], [ -109.041461, 37.800105 ], [ -109.041754, 37.835826 ], [ -109.041723, 37.842051 ], [ -109.041844, 37.872788 ], [ -109.041654683556004, 37.8810851664933 ], [ -109.041058, 37.907236 ], [ -109.043121, 37.97426 ], [ -109.042819, 37.997068 ], [ -109.04282, 37.999301 ], [ -109.042816980425371, 37.999773026870677 ], [ -108.766599865774737, 38.000807869745067 ], [ -108.675120979862086, 37.875581247868624 ], [ -108.647023893474625, 37.875065471236859 ], [ -108.553584745721011, 37.791978350408641 ], [ -108.488896104968504, 37.791978350408641 ], [ -108.388269330464595, 37.708797691140042 ], [ -108.163492639364932, 37.70724685369948 ], [ -107.956358304834168, 37.780617565126718 ], [ -107.957665146061501, 37.852883660023984 ], [ -107.578681190137715, 38.041473434015195 ], [ -107.461065479678595, 38.209044398018428 ], [ -107.415979457335951, 38.209044398018428 ], [ -107.415979457335951, 38.290743062335771 ], [ -107.360928770635027, 38.290057219590111 ], [ -107.306694859701111, 38.250043168537808 ], [ -107.045980034850089, 38.249530024760219 ], [ -106.665035817085325, 38.151966986394811 ], [ -106.525237860729845, 38.054239333347233 ] ] ] ] } },
{ "type": "Feature", "properties": { "REGION_LABEL": "Pikes Peak", "REGION_ID": 1 }, "geometry": { "type": "MultiPolygon", "coordinates": [ [ [ [ -104.957501961904498, 38.20819035102749 ], [ -104.957892786317487, 38.249337594909505 ], [ -104.891897304337661, 38.249337594909505 ], [ -104.831129187267138, 38.386730819852843 ], [ -104.875561788996123, 38.437418411657141 ], [ -104.810219727629928, 38.49932161487763 ], [ -104.708449467052134, 38.4998329901806 ], [ -104.70828611189873, 38.581733966714786 ], [ -104.772484687190982, 38.581989362021872 ], [ -104.860696470035322, 38.665710009032537 ], [ -104.935839840606405, 38.666220200943378 ], [ -105.063910280884102, 38.791616933398537 ], [ -105.124678397954654, 38.791616933398537 ], [ -105.125331818568299, 39.000122043541694 ], [ -105.045287793394721, 38.958215951145306 ], [ -104.7914338849872, 39.055704544825311 ], [ -104.833579514568356, 39.12341037145486 ], [ -104.791760595294022, 39.166231774314561 ], [ -104.749336054436014, 39.208398674884876 ], [ -104.749206577829341, 39.208204381193461 ], [ -104.499599903410598, 39.333655881448337 ], [ -104.417922326702893, 39.333655881448337 ], [ -104.417922326702893, 39.293212195986897 ], [ -104.231044031195637, 39.29169510303754 ], [ -104.057234147961609, 39.458882691341245 ], [ -103.84552586913523, 39.500743059871944 ], [ -103.653924282404546, 39.625077080356384 ], [ -103.401853272458908, 39.624663105593449 ], [ -103.348926202752295, 39.582877436127276 ], [ -103.235231015975174, 39.58338102798173 ], [ -103.178383422586606, 39.62516639366649 ], [ -103.083637433605659, 39.624159813859904 ], [ -103.082984012992, 39.48864144610156 ], [ -103.126109773493681, 39.418511508138167 ], [ -103.082984012992, 39.34325782109201 ], [ -103.083637433605645, 39.190987882455381 ], [ -103.126109773493638, 39.139819874871321 ], [ -103.124802932266334, 39.084050004594559 ], [ -103.040511673103964, 39.082528389926324 ], [ -103.125641101932217, 38.959494951248878 ], [ -103.166785206694044, 38.959676732038872 ], [ -103.164171524239393, 38.693956412850376 ], [ -103.233434109287558, 38.624563825812416 ], [ -103.31315142415427, 38.625584792083757 ], [ -103.374572961838467, 38.560213650790956 ], [ -103.3758798030658, 38.418030767304003 ], [ -103.843728962447557, 38.372964795040254 ], [ -103.87378631067601, 38.249914882933041 ], [ -104.123392985094796, 38.249914882933041 ], [ -104.1246998263221, 38.162628255663549 ], [ -104.08418774827507, 38.081409226631465 ], [ -104.127313508776751, 37.972289917111112 ], [ -104.248849742917841, 37.893953434306468 ], [ -104.167825586823781, 37.809338903107381 ], [ -104.269432492248171, 37.750205964679601 ], [ -104.31059799090886, 37.707828421542729 ], [ -104.332808321353056, 37.707882156862468 ], [ -104.332814291773389, 37.708345366905533 ], [ -104.396849511912237, 37.710413112297772 ], [ -104.514465222371356, 37.831275770659012 ], [ -104.540602046917797, 37.970487055583931 ], [ -104.654297233694948, 38.041537760379626 ], [ -104.765378738017418, 38.039479288689748 ], [ -104.940495462478751, 38.208081707962734 ], [ -104.957501961904498, 38.20819035102749 ] ] ] ] } },
{ "type": "Feature", "properties": { "REGION_LABEL": "Northern Mountains", "REGION_ID": 10 }, "geometry": { "type": "MultiPolygon", "coordinates": [ [ [ [ -105.541969137354144, 40.997425831962921 ], [ -105.541969137354144, 40.896304699906388 ], [ -105.415205538303795, 40.76380231676594 ], [ -105.417819220758446, 40.584405022616501 ], [ -105.498843376852491, 40.583412536761671 ], [ -105.457024457578143, 40.496016120046349 ], [ -105.544582819808809, 40.372673159078836 ], [ -105.54066229612684, 40.272041182358315 ], [ -105.585094897855825, 40.22915234569296 ], [ -105.54066229612684, 40.176251971330245 ], [ -105.541969137354187, 39.875035366800262 ], [ -105.641289070630762, 39.875035366800262 ], [ -105.748450051271249, 39.769647078356165 ], [ -105.750410313112255, 39.707341922404275 ], [ -105.834048151660966, 39.682705811768926 ], [ -105.901350474868096, 39.750057173878808 ], [ -106.040529065578042, 39.780695335210403 ], [ -106.147690046218571, 39.761610868602077 ], [ -106.277067327723572, 39.782703918646568 ], [ -106.431274592547723, 39.707844608614401 ], [ -106.499230336368583, 39.708347291162013 ], [ -106.500537177595888, 39.583066283501573 ], [ -106.664545751624971, 39.623845254667607 ], [ -106.831821428722378, 39.582562689359918 ], [ -106.957931607159082, 39.583569873983734 ], [ -106.957931607159082, 39.677174047836218 ], [ -107.042222866321438, 39.779188859158609 ], [ -107.097110197869029, 39.917145414869466 ], [ -107.25301671595841, 39.917876761909042 ], [ -107.252624303920484, 39.918147719690232 ], [ -107.294443223194861, 39.976256296302871 ], [ -107.260465351284438, 40.019304926788983 ], [ -107.376774220516197, 40.165267476025285 ], [ -107.373997182908127, 40.291357211346075 ], [ -107.314862617371759, 40.291232609492866 ], [ -107.223383731459123, 40.376904383646163 ], [ -107.124063798182547, 40.375908825298573 ], [ -107.1227569569552, 40.444567837230267 ], [ -107.19986058936729, 40.625332230021861 ], [ -107.229917937595744, 40.62632409359297 ], [ -107.291339475279941, 40.687790863597705 ], [ -107.291339475279941, 40.750686018736516 ], [ -107.208355057344889, 40.750686018736516 ], [ -107.208355057344889, 40.833794591458002 ], [ -107.375630734442296, 40.833794591458002 ], [ -107.283202915270707, 41.00289350881355 ], [ -107.241194, 41.002804 ], [ -107.000606, 41.003444 ], [ -106.857773, 41.002663 ], [ -106.453859, 41.002057 ], [ -106.439563, 41.001978 ], [ -106.437419, 41.001795 ], [ -106.43095, 41.001752 ], [ -106.391852, 41.001176 ], [ -106.386356, 41.001144 ], [ -106.321165, 40.999123 ], [ -106.217573, 40.997734 ], [ -106.190553863625993, 40.997607017384297 ], [ -106.061181, 40.996999 ], [ -105.770562857290003, 40.996899713961398 ], [ -105.730421, 40.996886 ], [ -105.724804, 40.99691 ], [ -105.541969137354144, 40.997425831962921 ] ] ] ] } },
{ "type": "Feature", "properties": { "REGION_LABEL": "San Luis Valley", "REGION_ID": 6 }, "geometry": { "type": "MultiPolygon", "coordinates": [ [ [ [ -106.041182443088459, 38.208217005558062 ], [ -105.901023764561415, 38.208081707962734 ], [ -105.814772243558096, 38.289159710218037 ], [ -105.771646483056401, 38.289159710218037 ], [ -105.639655519096735, 38.418286743704726 ], [ -105.511585078819039, 38.417262832659851 ], [ -105.167885836032994, 38.333252754032507 ], [ -105.101236933439523, 38.20910857690275 ], [ -104.940495462478751, 38.208081707962734 ], [ -104.765378738017418, 38.039479288689748 ], [ -104.654297233694948, 38.041537760379626 ], [ -104.540602046917797, 37.970487055583931 ], [ -104.514465222371356, 37.831275770659012 ], [ -104.396849511912237, 37.710413112297772 ], [ -104.332814291773389, 37.708345366905533 ], [ -104.331507450546084, 37.60695518882477 ], [ -104.389008464548311, 37.54170269956748 ], [ -104.531454158326554, 37.49920608784695 ], [ -104.59679621969272, 37.502316416694562 ], [ -104.713105088924493, 37.390262981433587 ], [ -104.747082960834902, 37.26348234571784 ], [ -104.748389802062206, 37.126069073500695 ], [ -104.664751963513524, 37.126069073500695 ], [ -104.76166053828166, 36.993459789510936 ], [ -105.000554, 36.993264 ], [ -105.029228, 36.992729 ], [ -105.1208, 36.995428 ], [ -105.136447566708, 36.995387396874399 ], [ -105.155042271642003, 36.995339146360102 ], [ -105.220506506712994, 36.995169276334401 ], [ -105.220613, 36.995169 ], [ -105.251296, 36.995605 ], [ -105.41931, 36.995856 ], [ -105.442459, 36.995994 ], [ -105.447255, 36.996017 ], [ -105.465182, 36.995991 ], [ -105.508836, 36.995895 ], [ -105.512485, 36.995777 ], [ -105.522324624049006, 36.995821982187699 ], [ -105.533922, 36.995875 ], [ -105.62747, 36.995679 ], [ -105.66472, 36.995874 ], [ -105.716471, 36.995849 ], [ -105.718469674138007, 36.995845920037503 ], [ -105.996159, 36.995418 ], [ -105.997472, 36.995417 ], [ -106.006316634542998, 36.995345563309698 ], [ -106.006634, 36.995343 ], [ -106.100010801920007, 36.994757822413099 ], [ -106.201469, 36.994122 ], [ -106.240524873295627, 36.994243637809383 ], [ -106.347310043692374, 37.208338886148155 ], [ -106.393049486648692, 37.208859295918906 ], [ -106.49759678483457, 37.607472837008345 ], [ -106.606064606702404, 37.710930039631016 ], [ -106.666179303159268, 37.710930039631016 ], [ -106.664872461931949, 37.826630860498625 ], [ -106.525237860729845, 38.054239333347233 ], [ -106.524550385148075, 38.05375874423931 ], [ -106.380144429528826, 38.082052136753916 ], [ -106.273146804041787, 38.082309299220121 ], [ -106.143116101923113, 38.207696628375352 ], [ -106.041182486191886, 38.208210067372498 ], [ -106.041182443088459, 38.208217005558062 ] ] ] ] } },
{ "type": "Feature", "properties": { "REGION_LABEL": "Southeast", "REGION_ID": 2 }, "geometry": { "type": "MultiPolygon", "coordinates": [ [ [ [ -104.332808321353056, 37.707882156862468 ], [ -104.31059799090886, 37.707828421542729 ], [ -104.269432492248171, 37.750205964679601 ], [ -104.167825586823781, 37.809338903107381 ], [ -104.248849742917841, 37.893953434306468 ], [ -104.127313508776751, 37.972289917111112 ], [ -104.08418774827507, 38.081409226631465 ], [ -104.1246998263221, 38.162628255663549 ], [ -104.123392985094796, 38.249914882933041 ], [ -103.87378631067601, 38.249914882933041 ], [ -103.843728962447557, 38.372964795040254 ], [ -103.3758798030658, 38.418030767304003 ], [ -103.374572961838467, 38.560213650790956 ], [ -103.31315142415427, 38.625584792083757 ], [ -103.233434109287558, 38.624563825812416 ], [ -103.164171524239393, 38.693956412850376 ], [ -103.166785206694044, 38.959676732038872 ], [ -102.936781150685121, 38.958660539822638 ], [ -102.638821350855423, 39.039909855467137 ], [ -102.581320336853182, 39.039909855467137 ], [ -102.5826271780805, 38.960692909681505 ], [ -102.263757918613592, 38.959676732038872 ], [ -102.04633659576686, 39.00074247045066 ], [ -102.045388, 38.813392 ], [ -102.045334, 38.799463 ], [ -102.045448, 38.783453 ], [ -102.045371, 38.770064 ], [ -102.045287, 38.755528 ], [ -102.045375, 38.754339 ], [ -102.045212, 38.697567 ], [ -102.045156, 38.688555 ], [ -102.045127, 38.686725 ], [ -102.04516, 38.675221 ], [ -102.045102, 38.674946 ], [ -102.045074, 38.669617 ], [ -102.045288, 38.615249 ], [ -102.045287815606002, 38.615168441559497 ], [ -102.045211, 38.581609 ], [ -102.045189, 38.558732 ], [ -102.045223, 38.543797 ], [ -102.045112, 38.523784 ], [ -102.045262, 38.505532 ], [ -102.045263, 38.505395 ], [ -102.045324, 38.453647 ], [ -102.044936, 38.41968 ], [ -102.044442, 38.415802 ], [ -102.044944, 38.384419 ], [ -102.044613, 38.312324 ], [ -102.044568, 38.268819 ], [ -102.044567368214999, 38.268749117200699 ], [ -102.044510072920005, 38.262411583471803 ], [ -102.044398, 38.250015 ], [ -102.044251, 38.141778 ], [ -102.044589, 38.125013 ], [ -102.044255, 38.113011 ], [ -102.044644, 38.045532 ], [ -102.043844, 37.928102 ], [ -102.043845, 37.926135 ], [ -102.043219, 37.867929 ], [ -102.043033, 37.824146 ], [ -102.042953, 37.803535 ], [ -102.042668, 37.788758 ], [ -102.042158, 37.760164 ], [ -102.041989965862996, 37.738540628373599 ], [ -102.041876, 37.723875 ], [ -102.041574, 37.680436 ], [ -102.041694, 37.665681 ], [ -102.041582, 37.654495 ], [ -102.041585, 37.644282 ], [ -102.041618, 37.607868 ], [ -102.041894, 37.557977 ], [ -102.041899, 37.541186 ], [ -102.042016, 37.535261 ], [ -102.041786, 37.506066 ], [ -102.041801, 37.469488 ], [ -102.041755, 37.434855 ], [ -102.041669, 37.43474 ], [ -102.041676, 37.409898 ], [ -102.041585760592994, 37.389190430803197 ], [ -102.041524, 37.375018 ], [ -102.042089, 37.352819 ], [ -102.041974, 37.352613 ], [ -102.041817, 37.30949 ], [ -102.041664, 37.29765 ], [ -102.041963, 37.258164 ], [ -102.042002, 37.141744 ], [ -102.042135, 37.125021 ], [ -102.042092, 37.125021 ], [ -102.041809, 37.111973 ], [ -102.041983, 37.106551 ], [ -102.04192, 37.035083 ], [ -102.041749, 37.034397 ], [ -102.041921, 37.032178 ], [ -102.04195, 37.030805 ], [ -102.041952, 37.024742 ], [ -102.04224, 36.993083 ], [ -102.054503, 36.993109 ], [ -102.184271, 36.993593 ], [ -102.208316, 36.99373 ], [ -102.260789, 36.994388 ], [ -102.355288, 36.994506 ], [ -102.355367, 36.994575 ], [ -102.698142, 36.995149 ], [ -102.74206, 36.997689 ], [ -102.759882, 36.998529 ], [ -102.778569, 36.999242 ], [ -102.799802, 36.999489 ], [ -102.817142, 36.999768 ], [ -102.841989, 36.999598 ], [ -102.979613, 36.998549 ], [ -102.985807, 36.998571 ], [ -102.986976, 36.998524 ], [ -103.002199, 37.000104 ], [ -103.086102011771004, 37.000173863231304 ], [ -103.155922, 37.000232 ], [ -103.733247, 36.998016 ], [ -103.734364, 36.998041 ], [ -104.007855, 36.996239 ], [ -104.250536, 36.994644 ], [ -104.338833, 36.993535 ], [ -104.433987103926995, 36.993656827461997 ], [ -104.480578185032996, 36.9937164788373 ], [ -104.480592108, 36.993716496663097 ], [ -104.519257, 36.993766 ], [ -104.624556, 36.994377 ], [ -104.625545, 36.993599 ], [ -104.645029, 36.993378 ], [ -104.732031, 36.993447 ], [ -104.73212, 36.993484 ], [ -104.76166053828166, 36.993459789510936 ], [ -104.664751963513524, 37.126069073500695 ], [ -104.748389802062206, 37.126069073500695 ], [ -104.747082960834902, 37.26348234571784 ], [ -104.713105088924493, 37.390262981433587 ], [ -104.59679621969272, 37.502316416694562 ], [ -104.531454158326554, 37.49920608784695 ], [ -104.389008464548311, 37.54170269956748 ], [ -104.331507450546084, 37.60695518882477 ], [ -104.332808321353056, 37.707882156862468 ] ] ] ] } },
{ "type": "Feature", "properties": { "REGION_LABEL": "Northern Front Range", "REGION_ID": 3 }, "geometry": { "type": "MultiPolygon", "coordinates": [ [ [ [ -104.544308296016212, 41.001598334096563 ], [ -104.500253324024243, 40.936608456780675 ], [ -104.561021441094795, 40.875371621077171 ], [ -104.627016923074606, 40.874877545144123 ], [ -104.625056661233614, 40.790831048405806 ], [ -104.45843440474988, 40.792315145298659 ], [ -104.457780984136221, 40.667535393341126 ], [ -104.40354707320229, 40.667039769544516 ], [ -104.291158727652487, 40.565359130713496 ], [ -104.29311898949345, 40.354065063237748 ], [ -104.249993228991769, 40.314217762376551 ], [ -104.249339808378124, 40.150597906813886 ], [ -104.293118989493493, 40.103134199771922 ], [ -104.223856404445328, 40.042132207720563 ], [ -104.131070677305374, 40.04213220772057 ], [ -103.788678275746648, 39.833714822967856 ], [ -103.604413662694043, 39.834216587220453 ], [ -103.541031863168854, 39.773978708581275 ], [ -103.541031863168868, 39.726252967456119 ], [ -103.651459946877708, 39.626676235922375 ], [ -103.84552586913523, 39.500743059871944 ], [ -104.057234147961609, 39.458882691341245 ], [ -104.231044031195637, 39.29169510303754 ], [ -104.417922326702893, 39.293212195986897 ], [ -104.417922326702893, 39.333655881448337 ], [ -104.499599903410598, 39.333655881448337 ], [ -104.749206577829341, 39.208204381193461 ], [ -104.791025497103689, 39.270958205266091 ], [ -104.749859998443, 39.312931413021666 ], [ -104.791678917717377, 39.385692695307149 ], [ -104.93739171456393, 39.583381027981758 ], [ -105.083104511410468, 39.583381027981737 ], [ -105.082451090796809, 39.542578232037009 ], [ -105.290892266554891, 39.542578232037009 ], [ -105.291545687168579, 39.625669678078999 ], [ -105.249073347280543, 39.625166393666497 ], [ -105.249726767894231, 39.688551398899108 ], [ -105.398706667809066, 39.833714822967835 ], [ -105.454247419970329, 39.832962169716133 ], [ -105.541967748958669, 39.875355381025088 ], [ -105.54066229612684, 40.176251971330245 ], [ -105.585094897855825, 40.22915234569296 ], [ -105.54066229612684, 40.272041182358315 ], [ -105.544582819808809, 40.372673159078836 ], [ -105.457024457578143, 40.496016120046349 ], [ -105.498843376852491, 40.583412536761671 ], [ -105.417819220758446, 40.584405022616501 ], [ -105.415205538303795, 40.76380231676594 ], [ -105.541969137354144, 40.896304699906388 ], [ -105.541969137354144, 40.997425831962921 ], [ -105.412718025681997, 40.997790488099497 ], [ -105.277138, 40.998173 ], [ -105.276859991921, 40.998173242790003 ], [ -105.256527, 40.998191 ], [ -105.254779, 40.99821 ], [ -104.943371, 40.998083723808897 ], [ -104.855273, 40.998048 ], [ -104.829504, 40.99927 ], [ -104.773027200166993, 40.999890672690299 ], [ -104.675999, 41.000957 ], [ -104.544308296016212, 41.001598334096563 ] ] ] ] } },
{ "type": "Feature", "properties": { "REGION_LABEL": "Northeast", "REGION_ID": 4 }, "geometry": { "type": "MultiPolygon", "coordinates": [ [ [ [ -103.125641101932217, 38.959494951248878 ], [ -103.040511673103964, 39.082528389926324 ], [ -103.124802932266334, 39.084050004594559 ], [ -103.126109773493638, 39.139819874871321 ], [ -103.083637433605645, 39.190987882455381 ], [ -103.082984012992, 39.34325782109201 ], [ -103.126109773493681, 39.418511508138167 ], [ -103.082984012992, 39.48864144610156 ], [ -103.083637433605659, 39.624159813859904 ], [ -103.178383422586606, 39.62516639366649 ], [ -103.235231015975174, 39.58338102798173 ], [ -103.348926202752295, 39.582877436127276 ], [ -103.401853272458908, 39.624663105593449 ], [ -103.653924282404546, 39.625077080356384 ], [ -103.651459946877708, 39.626676235922375 ], [ -103.541031863168868, 39.726252967456119 ], [ -103.541031863168854, 39.773978708581275 ], [ -103.604413662694043, 39.834216587220453 ], [ -103.788678275746648, 39.833714822967856 ], [ -104.131070677305374, 40.04213220772057 ], [ -104.223856404445328, 40.042132207720563 ], [ -104.293118989493493, 40.103134199771922 ], [ -104.249339808378124, 40.150597906813886 ], [ -104.249993228991769, 40.314217762376551 ], [ -104.29311898949345, 40.354065063237748 ], [ -104.291158727652487, 40.565359130713496 ], [ -104.40354707320229, 40.667039769544516 ], [ -104.457780984136221, 40.667535393341126 ], [ -104.45843440474988, 40.792315145298659 ], [ -104.625056661233614, 40.790831048405806 ], [ -104.627016923074606, 40.874877545144123 ], [ -104.561021441094795, 40.875371621077171 ], [ -104.500253324024243, 40.936608456780675 ], [ -104.544308296016212, 41.001598334096563 ], [ -104.497149, 41.001828 ], [ -104.497058, 41.001805 ], [ -104.467672, 41.001473 ], [ -104.214692, 41.001657 ], [ -104.214191, 41.001568 ], [ -104.211473, 41.001591 ], [ -104.123586, 41.001626 ], [ -104.10459, 41.001543 ], [ -104.086068, 41.001563 ], [ -104.066961, 41.001504 ], [ -104.053249, 41.001406 ], [ -104.039238, 41.001502 ], [ -104.023383, 41.001887 ], [ -104.018223, 41.001617 ], [ -103.972642, 41.001615 ], [ -103.971373, 41.001524 ], [ -103.953525, 41.001596 ], [ -103.906324, 41.001387 ], [ -103.896207, 41.00175 ], [ -103.877967, 41.001673 ], [ -103.858449, 41.001681 ], [ -103.750498, 41.002054 ], [ -103.574522, 41.001721 ], [ -103.573773995351999, 41.001720165379197 ], [ -103.497447, 41.001635 ], [ -103.486697, 41.001914 ], [ -103.421975, 41.002007 ], [ -103.421925, 41.001969 ], [ -103.396991, 41.002558 ], [ -103.382492446889003, 41.00223211782 ], [ -103.365314, 41.001846 ], [ -103.362979, 41.001844 ], [ -103.077804, 41.002298 ], [ -103.076536, 41.002253 ], [ -103.059538, 41.002368 ], [ -103.057998, 41.002368 ], [ -103.043444, 41.002344 ], [ -103.038704, 41.002251 ], [ -103.002026, 41.002486 ], [ -103.000102, 41.0024 ], [ -102.98269, 41.002157 ], [ -102.981483, 41.002112 ], [ -102.963669, 41.002186 ], [ -102.962522, 41.002072 ], [ -102.960706, 41.002059 ], [ -102.959624, 41.002095 ], [ -102.94483, 41.002303 ], [ -102.943109, 41.002051 ], [ -102.925568, 41.00228 ], [ -102.924029, 41.002142 ], [ -102.906547, 41.002276 ], [ -102.904796, 41.002207 ], [ -102.887407, 41.002178 ], [ -102.885746, 41.002131 ], [ -102.867822, 41.002183 ], [ -102.865784, 41.001988 ], [ -102.849263, 41.002301 ], [ -102.846455, 41.002256 ], [ -102.830303, 41.002351 ], [ -102.82728, 41.002143 ], [ -102.773546, 41.002414 ], [ -102.766723, 41.002275 ], [ -102.754617, 41.002361 ], [ -102.739624, 41.00223 ], [ -102.653463, 41.002332 ], [ -102.621033, 41.002597 ], [ -102.578696, 41.002291 ], [ -102.575738, 41.002268 ], [ -102.575496, 41.0022 ], [ -102.566048, 41.0022 ], [ -102.556789, 41.002219 ], [ -102.487955, 41.002445 ], [ -102.470537, 41.002382 ], [ -102.469223, 41.002424 ], [ -102.379593, 41.002301 ], [ -102.364066, 41.002174 ], [ -102.292833, 41.002207 ], [ -102.292622, 41.00223 ], [ -102.292553, 41.002207 ], [ -102.291354, 41.002207 ], [ -102.2721, 41.002245 ], [ -102.267812, 41.002383 ], [ -102.231931, 41.002327 ], [ -102.2122, 41.002462 ], [ -102.209361, 41.002442 ], [ -102.19121, 41.002326 ], [ -102.124972, 41.002338 ], [ -102.070598, 41.002423 ], [ -102.051717530057999, 41.002377250862999 ], [ -102.051614, 41.002377 ], [ -102.051292, 40.749591 ], [ -102.051398432507, 40.697541816873397 ], [ -102.051725, 40.537839 ], [ -102.051519, 40.520094 ], [ -102.051465, 40.440008 ], [ -102.05184, 40.396396 ], [ -102.051572, 40.39308 ], [ -102.051798, 40.360069 ], [ -102.051553251675998, 40.349213986395299 ], [ -102.051309, 40.338381 ], [ -102.051922, 40.235344 ], [ -102.051894, 40.229193 ], [ -102.051909, 40.162674 ], [ -102.052001, 40.148359 ], [ -102.051744, 40.003078 ], [ -102.051569, 39.849805 ], [ -102.051363, 39.843471 ], [ -102.051318, 39.833311 ], [ -102.051254, 39.818992 ], [ -102.050594, 39.675594 ], [ -102.050099, 39.653812 ], [ -102.050422, 39.646048 ], [ -102.049954, 39.592331 ], [ -102.049806, 39.574058 ], [ -102.049763830217003, 39.568180000858 ], [ -102.049554, 39.538932 ], [ -102.049673, 39.536691 ], [ -102.049679, 39.506183 ], [ -102.049369, 39.423333 ], [ -102.04937, 39.41821 ], [ -102.049167, 39.403597 ], [ -102.04896, 39.373712 ], [ -102.048449, 39.303138 ], [ -102.04725, 39.13702 ], [ -102.047188609269, 39.1331465624163 ], [ -102.047134, 39.129701 ], [ -102.046571, 39.047038 ], [ -102.04633659576686, 39.00074247045066 ], [ -102.263757918613592, 38.959676732038872 ], [ -102.5826271780805, 38.960692909681505 ], [ -102.581320336853182, 39.039909855467137 ], [ -102.638821350855423, 39.039909855467137 ], [ -102.936781150685121, 38.958660539822638 ], [ -103.125641101932217, 38.959494951248878 ] ] ] ] } },
{ "type": "Feature", "properties": { "REGION_LABEL": "South Park", "REGION_ID": 5 }, "geometry": { "type": "MultiPolygon", "coordinates": [ [ [ [ -104.749336054436014, 39.208398674884876 ], [ -104.791760595294022, 39.166231774314561 ], [ -104.833579514568356, 39.12341037145486 ], [ -104.7914338849872, 39.055704544825311 ], [ -105.045287793394721, 38.958215951145306 ], [ -105.125331818568299, 39.000122043541694 ], [ -105.124678397954654, 38.791616933398537 ], [ -105.063910280884102, 38.791616933398537 ], [ -104.935839840606405, 38.666220200943378 ], [ -104.860696470035322, 38.665710009032537 ], [ -104.772484687190982, 38.581989362021872 ], [ -104.70828611189873, 38.581733966714786 ], [ -104.708449467052134, 38.4998329901806 ], [ -104.810219727629928, 38.49932161487763 ], [ -104.875561788996123, 38.437418411657141 ], [ -104.831129187267138, 38.386730819852843 ], [ -104.891897304337661, 38.249337594909505 ], [ -104.957892786317487, 38.249337594909505 ], [ -104.957501961904498, 38.20819035102749 ], [ -105.101236933439523, 38.20910857690275 ], [ -105.167885836032994, 38.333252754032507 ], [ -105.511585078819039, 38.417262832659851 ], [ -105.639655519096735, 38.418286743704726 ], [ -105.771646483056401, 38.289159710218037 ], [ -105.814772243558096, 38.289159710218037 ], [ -105.901023764561415, 38.208081707962734 ], [ -106.041182443088459, 38.208217005558062 ], [ -106.040529065578227, 38.313388567253384 ], [ -106.106524547558038, 38.374885792968627 ], [ -106.207151322061932, 38.374885792968627 ], [ -106.175787132606175, 38.436330793855156 ], [ -106.208458163289265, 38.499896911838285 ], [ -106.291442581224288, 38.500152597901454 ], [ -106.291769291531111, 38.606949869655196 ], [ -106.374100288852475, 38.685541043201411 ], [ -106.373446868238815, 38.858748616789761 ], [ -106.307451386259004, 38.917238311225454 ], [ -106.249296951643075, 38.916729912763905 ], [ -106.250603792870379, 39.00056636917234 ], [ -106.201597246845807, 39.000058568223899 ], [ -105.850056956695809, 39.438447704130382 ], [ -105.873580098787627, 39.519143559109949 ], [ -105.834492264797944, 39.68315024850277 ], [ -105.834048151660966, 39.682705811768926 ], [ -105.750410313112255, 39.707341922404275 ], [ -105.748450051271249, 39.769647078356165 ], [ -105.641289070630762, 39.875035366800262 ], [ -105.541969137354187, 39.875035366800262 ], [ -105.541967748958669, 39.875355381025088 ], [ -105.454247419970329, 39.832962169716133 ], [ -105.398706667809066, 39.833714822967835 ], [ -105.249726767894231, 39.688551398899108 ], [ -105.249073347280543, 39.625166393666497 ], [ -105.291545687168579, 39.625669678078999 ], [ -105.290892266554891, 39.542578232037009 ], [ -105.082451090796809, 39.542578232037009 ], [ -105.083104511410468, 39.583381027981737 ], [ -104.93739171456393, 39.583381027981758 ], [ -104.791678917717377, 39.385692695307149 ], [ -104.749859998443, 39.312931413021666 ], [ -104.791025497103689, 39.270958205266091 ], [ -104.749336054436014, 39.208398674884876 ] ] ] ] } }
]
}
